{
  "norad_id": 58842,
  "name": "STARLINK-31228",
  "history": [
    {
      "epoch": "2026-03-28T08:40:48.436608",
      "apogee_km": 475.98652781371857,
      "perigee_km": 474.4964662608936,
      "latitude_deg": -39.14454931879423,
      "longitude_deg": 98.92048512003385,
      "semi_major_axis_km": 6853.378497037306,
      "eccentricity": 0.00010871,
      "inclination_deg": 53.1601,
      "raan_deg": 117.6819,
      "arg_perigee_deg": 77.7665,
      "mean_anomaly_deg": 282.3457,
      "mean_motion_rev_day": 15.30191149
    }
  ]
}