{"fetched_at":"2026-03-29T16:36:15Z","count":15609,"tles":[{"name":"STARLINK-31228","line1":"1 58842U 24017S   26087.36167172  .00000348  00000+0  23894-4 0  9991","line2":"2 58842  53.1601 117.6819 0001087  77.7665 282.3457 15.30191149122912","category":"Starlink"}]}